STARLINK-32651          
1 62314U 24239P   26068.61526155  .00028253  00000+0  96322-3 0  9993
2 62314  53.1593 194.1825 0001348 105.2248 254.8902 15.30172456 69371
TEVEL2-4                
1 63213U 25052D   26068.69417973  .00020990  00000+0  70363-3 0  9998
2 63213  97.4009 325.1237 0004733  95.3468 264.8313 15.30925813 54879
